{"type": "FeatureCollection", "features": [{"type": "Feature", "geometry": {"type": "Polygon", "coordinates": [[[-77.2585083, -11.42924351], [-77.25859147, -11.42916941], [-77.25868873, -11.42926753], [-77.25862221, -11.42934318], [-77.2586097, -11.42935417], [-77.2585083, -11.42924351]]]}, "properties": {"categoria": "LOTE", "name": "A - 1", "id_lote": "A - 1", "fill": "#ffffff"}}, {"type": "Feature", "geometry": {"type": "Polygon", "coordinates": [[[-77.2576344, -11.43022358], [-77.25755174, -11.43029644], [-77.25753798, -11.43030483], [-77.2574624, -11.43017534], [-77.25753276, -11.43011265], [-77.2576344, -11.43022358]]]}, "properties": {"categoria": "LOTE", "name": "A - 14", "id_lote": "A - 14", "fill": "#ffffff"}}, {"type": "Feature", "geometry": {"type": "Polygon", "coordinates": [[[-77.25771681, -11.43015094], [-77.25761477, -11.43003958], [-77.25769647, -11.42996679], [-77.2577989, -11.43007858], [-77.25771681, -11.43015094]]]}, "properties": {"categoria": "LOTE", "name": "A - 12", "id_lote": "A - 12", "fill": "#ffffff"}}, {"type": "Feature", "geometry": {"type": "Polygon", "coordinates": [[[-77.2577989, -11.43007858], [-77.25769647, -11.42996679], [-77.25777786, -11.42989428], [-77.25788068, -11.4300065], [-77.2577989, -11.43007858]]]}, "properties": {"categoria": "LOTE", "name": "A - 11", "id_lote": "A - 11", "fill": "#ffffff"}}, {"type": "Feature", "geometry": {"type": "Polygon", "coordinates": [[[-77.25788068, -11.4300065], [-77.25777786, -11.42989428], [-77.25785893, -11.42982205], [-77.25796214, -11.42993469], [-77.25788068, -11.4300065]]]}, "properties": {"categoria": "LOTE", "name": "A - 10", "id_lote": "A - 10", "fill": "#ffffff"}}, {"type": "Feature", "geometry": {"type": "Polygon", "coordinates": [[[-77.25796214, -11.42993469], [-77.25785893, -11.42982205], [-77.25793971, -11.42975009], [-77.2580433, -11.42986316], [-77.25796214, -11.42993469]]]}, "properties": {"categoria": "LOTE", "name": "A - 9", "id_lote": "A - 9", "fill": "#ffffff"}}, {"type": "Feature", "geometry": {"type": "Polygon", "coordinates": [[[-77.2580433, -11.42986316], [-77.25793971, -11.42975009], [-77.25802017, -11.4296784], [-77.25812416, -11.42979189], [-77.2580433, -11.42986316]]]}, "properties": {"categoria": "LOTE", "name": "A - 8", "id_lote": "A - 8", "fill": "#388e3c"}}, {"type": "Feature", "geometry": {"type": "Polygon", "coordinates": [[[-77.25812416, -11.42979189], [-77.25802017, -11.4296784], [-77.25810034, -11.42960697], [-77.25820472, -11.42972088], [-77.25812416, -11.42979189]]]}, "properties": {"categoria": "LOTE", "name": "A - 7", "id_lote": "A - 7", "fill": "#ffffff"}}, {"type": "Feature", "geometry": {"type": "Polygon", "coordinates": [[[-77.25828432, -11.42964928], [-77.25826408, -11.42966856], [-77.25820472, -11.42972088], [-77.25810034, -11.42960697], [-77.25818029, -11.42953574], [-77.25828432, -11.42964928]]]}, "properties": {"categoria": "LOTE", "name": "A - 6", "id_lote": "A - 6", "fill": "#ffffff"}}, {"type": "Feature", "geometry": {"type": "Polygon", "coordinates": [[[-77.25836401, -11.42957539], [-77.25834502, -11.42959149], [-77.25828432, -11.42964928], [-77.25818029, -11.42953574], [-77.25826144, -11.42946345], [-77.25836401, -11.42957539]]]}, "properties": {"categoria": "LOTE", "name": "A - 5", "id_lote": "A - 5", "fill": "#ffffff"}}, {"type": "Feature", "geometry": {"type": "Polygon", "coordinates": [[[-77.25844548, -11.42950416], [-77.2584326, -11.42951724], [-77.25836401, -11.42957539], [-77.25826144, -11.42946345], [-77.25834223, -11.42939146], [-77.25844548, -11.42950416]]]}, "properties": {"categoria": "LOTE", "name": "A - 4", "id_lote": "A - 4", "fill": "#ffffff"}}, {"type": "Feature", "geometry": {"type": "Polygon", "coordinates": [[[-77.25852443, -11.42942639], [-77.25849693, -11.42945191], [-77.25844548, -11.42950416], [-77.25834223, -11.42939146], [-77.25842492, -11.42931779], [-77.25852443, -11.42942639]]]}, "properties": {"categoria": "LOTE", "name": "A - 3", "id_lote": "A - 3", "fill": "#d32f2f"}}, {"type": "Feature", "geometry": {"type": "Polygon", "coordinates": [[[-77.2586097, -11.42935417], [-77.25859874, -11.42936379], [-77.25854361, -11.4294086], [-77.25852443, -11.42942639], [-77.25842492, -11.42931779], [-77.2585083, -11.42924351], [-77.2586097, -11.42935417]]]}, "properties": {"categoria": "LOTE", "name": "A - 2", "id_lote": "A - 2", "fill": "#ffffff"}}, {"type": "Feature", "geometry": {"type": "Polygon", "coordinates": [[[-77.2576344, -11.43022358], [-77.25753276, -11.43011265], [-77.25761477, -11.43003958], [-77.25771681, -11.43015094], [-77.2576344, -11.43022358]]]}, "properties": {"categoria": "LOTE", "name": "A - 13", "id_lote": "A - 13", "fill": "#ffffff"}}, {"type": "Feature", "geometry": {"type": "Polygon", "coordinates": [[[-77.25793713, -11.42965497], [-77.25784873, -11.42973373], [-77.25782129, -11.42973236], [-77.25775217, -11.42965691], [-77.25785498, -11.42956531], [-77.25793713, -11.42965497]]]}, "properties": {"categoria": "LOTE", "name": "B - 10", "id_lote": "B - 10", "fill": "#ffffff"}}, {"type": "Feature", "geometry": {"type": "Polygon", "coordinates": [[[-77.25767093, -11.42956825], [-77.2576018, -11.4294928], [-77.25760319, -11.42946575], [-77.25769159, -11.42938699], [-77.25777374, -11.42947665], [-77.25767093, -11.42956825]]]}, "properties": {"categoria": "LOTE", "name": "B - 8", "id_lote": "B - 8", "fill": "#ffffff"}}, {"type": "Feature", "geometry": {"type": "Polygon", "coordinates": [[[-77.25767093, -11.42956825], [-77.25777374, -11.42947665], [-77.25781436, -11.42952098], [-77.25785498, -11.42956531], [-77.25775217, -11.42965691], [-77.25767093, -11.42956825]]]}, "properties": {"categoria": "LOTE", "name": "B - 9", "id_lote": "B - 9", "fill": "#ffffff"}}, {"type": "Feature", "geometry": {"type": "Polygon", "coordinates": [[[-77.25820925, -11.42941253], [-77.25808648, -11.42927854], [-77.25815451, -11.42921793], [-77.25827728, -11.42935192], [-77.25820925, -11.42941253]]]}, "properties": {"categoria": "LOTE", "name": "B - 15", "id_lote": "B - 15", "fill": "#ffffff"}}, {"type": "Feature", "geometry": {"type": "Polygon", "coordinates": [[[-77.25814122, -11.42947314], [-77.25801845, -11.42933915], [-77.25808648, -11.42927854], [-77.25820925, -11.42941253], [-77.25814122, -11.42947314]]]}, "properties": {"categoria": "LOTE", "name": "B - 14", "id_lote": "B - 14", "fill": "#ffffff"}}, {"type": "Feature", "geometry": {"type": "Polygon", "coordinates": [[[-77.25807319, -11.42953375], [-77.25795042, -11.42939976], [-77.25801845, -11.42933915], [-77.25814122, -11.42947314], [-77.25807319, -11.42953375]]]}, "properties": {"categoria": "LOTE", "name": "B - 13", "id_lote": "B - 13", "fill": "#ffffff"}}, {"type": "Feature", "geometry": {"type": "Polygon", "coordinates": [[[-77.25800516, -11.42959436], [-77.25788239, -11.42946037], [-77.25795042, -11.42939976], [-77.25807319, -11.42953375], [-77.25800516, -11.42959436]]]}, "properties": {"categoria": "LOTE", "name": "B - 12", "id_lote": "B - 12", "fill": "#ffffff"}}, {"type": "Feature", "geometry": {"type": "Polygon", "coordinates": [[[-77.25793713, -11.42965497], [-77.25781436, -11.42952098], [-77.25788239, -11.42946037], [-77.25800516, -11.42959436], [-77.25793713, -11.42965497]]]}, "properties": {"categoria": "LOTE", "name": "B - 11", "id_lote": "B - 11", "fill": "#ffffff"}}, {"type": "Feature", "geometry": {"type": "Polygon", "coordinates": [[[-77.25781436, -11.42952098], [-77.25769159, -11.42938699], [-77.25775962, -11.42932638], [-77.25788239, -11.42946037], [-77.25781436, -11.42952098]]]}, "properties": {"categoria": "LOTE", "name": "B - 7", "id_lote": "B - 7", "fill": "#ffffff"}}, {"type": "Feature", "geometry": {"type": "Polygon", "coordinates": [[[-77.25795042, -11.42939976], [-77.25782765, -11.42926577], [-77.25789568, -11.42920516], [-77.25801845, -11.42933915], [-77.25795042, -11.42939976]]]}, "properties": {"categoria": "LOTE", "name": "B - 5", "id_lote": "B - 5", "fill": "#388e3c"}}, {"type": "Feature", "geometry": {"type": "Polygon", "coordinates": [[[-77.25801845, -11.42933915], [-77.25789568, -11.42920516], [-77.25796372, -11.42914455], [-77.25808648, -11.42927854], [-77.25801845, -11.42933915]]]}, "properties": {"categoria": "LOTE", "name": "B - 4", "id_lote": "B - 4", "fill": "#ffffff"}}, {"type": "Feature", "geometry": {"type": "Polygon", "coordinates": [[[-77.25808648, -11.42927854], [-77.25796372, -11.42914455], [-77.25803175, -11.42908394], [-77.25815451, -11.42921793], [-77.25808648, -11.42927854]]]}, "properties": {"categoria": "LOTE", "name": "B - 3", "id_lote": "B - 3", "fill": "#ffffff"}}, {"type": "Feature", "geometry": {"type": "Polygon", "coordinates": [[[-77.25815451, -11.42921793], [-77.25803175, -11.42908394], [-77.25809978, -11.42902332], [-77.2581987, -11.42913129], [-77.25822254, -11.42915732], [-77.25815451, -11.42921793]]]}, "properties": {"categoria": "LOTE", "name": "B - 2", "id_lote": "B - 2", "fill": "#ffffff"}}, {"type": "Feature", "geometry": {"type": "Polygon", "coordinates": [[[-77.25788239, -11.42946037], [-77.25775962, -11.42932638], [-77.25782765, -11.42926577], [-77.25795042, -11.42939976], [-77.25788239, -11.42946037]]]}, "properties": {"categoria": "LOTE", "name": "B - 6", "id_lote": "B - 6", "fill": "#ffffff"}}, {"type": "Feature", "geometry": {"type": "Polygon", "coordinates": [[[-77.25822254, -11.42915732], [-77.2581987, -11.42913129], [-77.25831639, -11.42902644], [-77.25832213, -11.42903837], [-77.25833411, -11.42906079], [-77.25836129, -11.42910049], [-77.25838366, -11.42911777], [-77.25827501, -11.42921458], [-77.25822254, -11.42915732]]]}, "properties": {"categoria": "LOTE", "name": "B - 18", "id_lote": "B - 18", "fill": "#ffffff"}}, {"type": "Feature", "geometry": {"type": "Polygon", "coordinates": [[[-77.25834531, -11.42929131], [-77.25827501, -11.42921458], [-77.25838366, -11.42911777], [-77.25840122, -11.42913133], [-77.25844606, -11.42915391], [-77.25845903, -11.42915904], [-77.25846385, -11.42918569], [-77.25834531, -11.42929131]]]}, "properties": {"categoria": "LOTE", "name": "B - 17", "id_lote": "B - 17", "fill": "#ffffff"}}, {"type": "Feature", "geometry": {"type": "Polygon", "coordinates": [[[-77.25822254, -11.42915732], [-77.25827501, -11.42921458], [-77.25834531, -11.42929131], [-77.25827728, -11.42935192], [-77.25815451, -11.42921793], [-77.25822254, -11.42915732]]]}, "properties": {"categoria": "LOTE", "name": "B - 16", "id_lote": "B - 16", "fill": "#ffffff"}}, {"type": "Feature", "geometry": {"type": "Polygon", "coordinates": [[[-77.25809978, -11.42902332], [-77.25813063, -11.42899584], [-77.25815699, -11.42898817], [-77.25816623, -11.42898905], [-77.2581755, -11.42898955], [-77.25818478, -11.42898968], [-77.25819406, -11.42898943], [-77.25820332, -11.42898882], [-77.25821255, -11.42898782], [-77.25822173, -11.42898646], [-77.25827791, -11.428972], [-77.2583016, -11.42898571], [-77.25830749, -11.42900793], [-77.25831639, -11.42902644], [-77.2581987, -11.42913129], [-77.25809978, -11.42902332]]]}, "properties": {"categoria": "LOTE", "name": "B - 1", "id_lote": "B - 1", "fill": "#d32f2f"}}, {"type": "Feature", "geometry": {"type": "Polygon", "coordinates": [[[-77.25761804, -11.4293064], [-77.25752948, -11.4293853], [-77.25750205, -11.42938392], [-77.25743305, -11.42930862], [-77.25753602, -11.42921688], [-77.25761804, -11.4293064]]]}, "properties": {"categoria": "LOTE", "name": "C - 12", "id_lote": "C - 12", "fill": "#ffffff"}}, {"type": "Feature", "geometry": {"type": "Polygon", "coordinates": [[[-77.25735194, -11.42922009], [-77.25728296, -11.4291448], [-77.25728434, -11.42911774], [-77.25737286, -11.42903881], [-77.25745491, -11.42912835], [-77.25735194, -11.42922009]]]}, "properties": {"categoria": "LOTE", "name": "C - 10", "id_lote": "C - 10", "fill": "#ffffff"}}, {"type": "Feature", "geometry": {"type": "Polygon", "coordinates": [[[-77.2578088, -11.42865007], [-77.25789562, -11.42857265], [-77.25792312, -11.42857165], [-77.25795761, -11.4285981], [-77.2579703, -11.42862215], [-77.25797181, -11.42863083], [-77.25797307, -11.42863955], [-77.25797409, -11.4286483], [-77.25797485, -11.42865707], [-77.25797535, -11.42866587], [-77.25797561, -11.42867467], [-77.25789621, -11.42874547], [-77.2578088, -11.42865007]]]}, "properties": {"categoria": "LOTE", "name": "C - 3", "id_lote": "C - 3", "fill": "#ffffff"}}, {"type": "Feature", "geometry": {"type": "Polygon", "coordinates": [[[-77.25780069, -11.42883064], [-77.25771329, -11.42873525], [-77.2578088, -11.42865007], [-77.25789621, -11.42874547], [-77.25780069, -11.42883064]]]}, "properties": {"categoria": "LOTE", "name": "C - 4", "id_lote": "C - 4", "fill": "#ffffff"}}, {"type": "Feature", "geometry": {"type": "Polygon", "coordinates": [[[-77.25783597, -11.42886915], [-77.25780069, -11.42883064], [-77.25789621, -11.42874547], [-77.25797561, -11.42867467], [-77.25797561, -11.42868349], [-77.25797536, -11.4286923], [-77.25797486, -11.42870111], [-77.2579741, -11.42870989], [-77.2579731, -11.42871866], [-77.25797184, -11.42872739], [-77.25797033, -11.42873608], [-77.25796912, -11.42874492], [-77.25796825, -11.42875381], [-77.2579677, -11.42876272], [-77.25796749, -11.42877164], [-77.25796762, -11.42878057], [-77.25796807, -11.42878949], [-77.25796886, -11.42879838], [-77.25786004, -11.42889542], [-77.25783597, -11.42886915]]]}, "properties": {"categoria": "LOTE", "name": "C - 2", "id_lote": "C - 2", "fill": "#ffffff"}}, {"type": "Feature", "geometry": {"type": "Polygon", "coordinates": [[[-77.2579586, -11.42900299], [-77.25786004, -11.42889542], [-77.25796886, -11.42879838], [-77.25796998, -11.42880721], [-77.25797142, -11.428816], [-77.25797319, -11.42882474], [-77.25797529, -11.4288334], [-77.2579777, -11.42884198], [-77.25798044, -11.42885047], [-77.25798348, -11.42885885], [-77.25798684, -11.42886711], [-77.2579908, -11.42887526], [-77.25799512, -11.42888324], [-77.25799979, -11.42889102], [-77.25800479, -11.42889859], [-77.25801011, -11.42890595], [-77.25801576, -11.42891307], [-77.25802171, -11.42891994], [-77.25802141, -11.42894703], [-77.2579586, -11.42900299]]]}, "properties": {"categoria": "LOTE", "name": "C - 1", "id_lote": "C - 1", "fill": "#ffffff"}}, {"type": "Feature", "geometry": {"type": "Polygon", "coordinates": [[[-77.25761804, -11.4293064], [-77.25753602, -11.42921688], [-77.25749542, -11.42917257], [-77.25756353, -11.42911188], [-77.25768615, -11.42924572], [-77.25761804, -11.4293064]]]}, "properties": {"categoria": "LOTE", "name": "C - 13", "id_lote": "C - 13", "fill": "#ffffff"}}, {"type": "Feature", "geometry": {"type": "Polygon", "coordinates": [[[-77.25775426, -11.42918503], [-77.25763164, -11.4290512], [-77.25763169, -11.42905116], [-77.25769975, -11.42899052], [-77.25782237, -11.42912435], [-77.25775426, -11.42918503]]]}, "properties": {"categoria": "LOTE", "name": "C - 15", "id_lote": "C - 15", "fill": "#ffffff"}}, {"type": "Feature", "geometry": {"type": "Polygon", "coordinates": [[[-77.25782237, -11.42912435], [-77.25769975, -11.42899052], [-77.2576998, -11.42899048], [-77.25776786, -11.42892984], [-77.25789049, -11.42906367], [-77.25782237, -11.42912435]]]}, "properties": {"categoria": "LOTE", "name": "C - 16", "id_lote": "C - 16", "fill": "#ffffff"}}, {"type": "Feature", "geometry": {"type": "Polygon", "coordinates": [[[-77.25786004, -11.42889542], [-77.2579586, -11.42900299], [-77.25789049, -11.42906367], [-77.25776786, -11.42892984], [-77.25776789, -11.42892981], [-77.25783597, -11.42886915], [-77.25786004, -11.42889542]]]}, "properties": {"categoria": "LOTE", "name": "C - 17", "id_lote": "C - 17", "fill": "#ffffff"}}, {"type": "Feature", "geometry": {"type": "Polygon", "coordinates": [[[-77.25756353, -11.42911188], [-77.25749542, -11.42917257], [-77.25745491, -11.42912835], [-77.25737286, -11.42903881], [-77.25744098, -11.42897807], [-77.25756356, -11.42911186], [-77.25756353, -11.42911188]]]}, "properties": {"categoria": "LOTE", "name": "C - 9", "id_lote": "C - 9", "fill": "#ffffff"}}, {"type": "Feature", "geometry": {"type": "Polygon", "coordinates": [[[-77.25769975, -11.42899052], [-77.25763169, -11.42905116], [-77.25750908, -11.42891734], [-77.25757716, -11.42885663], [-77.2576998, -11.42899048], [-77.25769975, -11.42899052]]]}, "properties": {"categoria": "LOTE", "name": "C - 7", "id_lote": "C - 7", "fill": "#ffffff"}}, {"type": "Feature", "geometry": {"type": "Polygon", "coordinates": [[[-77.25776786, -11.42892984], [-77.2576998, -11.42899048], [-77.25757716, -11.42885663], [-77.25764523, -11.42879593], [-77.25776789, -11.42892981], [-77.25776786, -11.42892984]]]}, "properties": {"categoria": "LOTE", "name": "C - 6", "id_lote": "C - 6", "fill": "#ffffff"}}, {"type": "Feature", "geometry": {"type": "Polygon", "coordinates": [[[-77.25780069, -11.42883064], [-77.25783597, -11.42886915], [-77.25776789, -11.42892981], [-77.25764523, -11.42879593], [-77.25771329, -11.42873525], [-77.25780069, -11.42883064]]]}, "properties": {"categoria": "LOTE", "name": "C - 5", "id_lote": "C - 5", "fill": "#d32f2f"}}, {"type": "Feature", "geometry": {"type": "Polygon", "coordinates": [[[-77.25763164, -11.4290512], [-77.25756356, -11.42911186], [-77.25744098, -11.42897807], [-77.25750908, -11.42891734], [-77.25763169, -11.42905116], [-77.25763164, -11.4290512]]]}, "properties": {"categoria": "LOTE", "name": "C - 8", "id_lote": "C - 8", "fill": "#ffffff"}}, {"type": "Feature", "geometry": {"type": "Polygon", "coordinates": [[[-77.25768615, -11.42924572], [-77.25756353, -11.42911188], [-77.25756356, -11.42911186], [-77.25763164, -11.4290512], [-77.25775426, -11.42918503], [-77.25768615, -11.42924572]]]}, "properties": {"categoria": "LOTE", "name": "C - 14", "id_lote": "C - 14", "fill": "#ffffff"}}, {"type": "Feature", "geometry": {"type": "Polygon", "coordinates": [[[-77.25735194, -11.42922009], [-77.25745491, -11.42912835], [-77.25749542, -11.42917257], [-77.25753602, -11.42921688], [-77.25743305, -11.42930862], [-77.25735194, -11.42922009]]]}, "properties": {"categoria": "LOTE", "name": "C - 11", "id_lote": "C - 11", "fill": "#ffffff"}}, {"type": "Feature", "geometry": {"type": "Polygon", "coordinates": [[[-77.25756656, -11.42998515], [-77.25749685, -11.43004726], [-77.25746974, -11.43004304], [-77.25739394, -11.42991316], [-77.25739021, -11.42990873], [-77.25744873, -11.42985654], [-77.25756656, -11.42998515]]]}, "properties": {"categoria": "LOTE", "name": "D - 11", "id_lote": "D - 11", "fill": "#ffffff"}}, {"type": "Feature", "geometry": {"type": "Polygon", "coordinates": [[[-77.25763743, -11.429922], [-77.25751958, -11.42979337], [-77.25752686, -11.42978687], [-77.25759041, -11.42973021], [-77.25770829, -11.42985886], [-77.25763743, -11.429922]]]}, "properties": {"categoria": "LOTE", "name": "D - 13", "id_lote": "D - 13", "fill": "#ffffff"}}, {"type": "Feature", "geometry": {"type": "Polygon", "coordinates": [[[-77.25766203, -11.42966635], [-77.25776691, -11.42978081], [-77.25776551, -11.42980786], [-77.25770829, -11.42985886], [-77.25759041, -11.42973021], [-77.25766203, -11.42966635]]]}, "properties": {"categoria": "LOTE", "name": "D - 1", "id_lote": "D - 1", "fill": "#ffffff"}}, {"type": "Feature", "geometry": {"type": "Polygon", "coordinates": [[[-77.25751958, -11.42979337], [-77.25744873, -11.42985654], [-77.25739021, -11.42990873], [-77.25733142, -11.42983866], [-77.2574651, -11.42971946], [-77.25752686, -11.42978687], [-77.25751958, -11.42979337]]]}, "properties": {"categoria": "LOTE", "name": "D - 10", "id_lote": "D - 10", "fill": "#ffffff"}}, {"type": "Feature", "geometry": {"type": "Polygon", "coordinates": [[[-77.25706055, -11.42951546], [-77.25714746, -11.42943797], [-77.25718643, -11.42940322], [-77.25725112, -11.42947382], [-77.25725192, -11.42947469], [-77.25712282, -11.42958981], [-77.25706055, -11.42951546]]]}, "properties": {"categoria": "LOTE", "name": "D - 8", "id_lote": "D - 8", "fill": "#ffffff"}}, {"type": "Feature", "geometry": {"type": "Polygon", "coordinates": [[[-77.25718643, -11.42940322], [-77.25723101, -11.42936347], [-77.25731549, -11.42928813], [-77.25738018, -11.42935873], [-77.25725112, -11.42947382], [-77.25718643, -11.42940322]]]}, "properties": {"categoria": "LOTE", "name": "D - 4", "id_lote": "D - 4", "fill": "#ffffff"}}, {"type": "Feature", "geometry": {"type": "Polygon", "coordinates": [[[-77.25706055, -11.42951546], [-77.25697765, -11.42941647], [-77.25697964, -11.42938944], [-77.25704753, -11.42932891], [-77.25714746, -11.42943797], [-77.25706055, -11.42951546]]]}, "properties": {"categoria": "LOTE", "name": "D - 7", "id_lote": "D - 7", "fill": "#ffffff"}}, {"type": "Feature", "geometry": {"type": "Polygon", "coordinates": [[[-77.25723101, -11.42936347], [-77.25713108, -11.42925441], [-77.25720116, -11.42919191], [-77.25722859, -11.42919328], [-77.25731549, -11.42928813], [-77.25723101, -11.42936347]]]}, "properties": {"categoria": "LOTE", "name": "D - 5", "id_lote": "D - 5", "fill": "#ffffff"}}, {"type": "Feature", "geometry": {"type": "Polygon", "coordinates": [[[-77.25731581, -11.42954442], [-77.25718357, -11.42966234], [-77.25712282, -11.42958981], [-77.25725192, -11.42947469], [-77.25731581, -11.42954442]]]}, "properties": {"categoria": "LOTE", "name": "D - 9", "id_lote": "D - 9", "fill": "#ffffff"}}, {"type": "Feature", "geometry": {"type": "Polygon", "coordinates": [[[-77.25725192, -11.42947469], [-77.25725112, -11.42947382], [-77.25738018, -11.42935873], [-77.25744487, -11.42942933], [-77.25731581, -11.42954442], [-77.25725192, -11.42947469]]]}, "properties": {"categoria": "LOTE", "name": "D - 3", "id_lote": "D - 3", "fill": "#ffffff"}}, {"type": "Feature", "geometry": {"type": "Polygon", "coordinates": [[[-77.25718643, -11.42940322], [-77.25714746, -11.42943797], [-77.25704753, -11.42932891], [-77.25713108, -11.42925441], [-77.25723101, -11.42936347], [-77.25718643, -11.42940322]]]}, "properties": {"categoria": "LOTE", "name": "D - 6", "id_lote": "D - 6", "fill": "#ffffff"}}, {"type": "Feature", "geometry": {"type": "Polygon", "coordinates": [[[-77.25759041, -11.42973021], [-77.25752686, -11.42978687], [-77.2574651, -11.42971946], [-77.25760026, -11.42959893], [-77.25766203, -11.42966635], [-77.25759041, -11.42973021]]]}, "properties": {"categoria": "LOTE", "name": "D - 2", "id_lote": "D - 2", "fill": "#ffffff"}}, {"type": "Feature", "geometry": {"type": "Polygon", "coordinates": [[[-77.25756656, -11.42998515], [-77.25744873, -11.42985654], [-77.25751958, -11.42979337], [-77.25763743, -11.429922], [-77.25756656, -11.42998515]]]}, "properties": {"categoria": "LOTE", "name": "D - 12", "id_lote": "D - 12", "fill": "#ffffff"}}, {"type": "Feature", "geometry": {"type": "Polygon", "coordinates": [[[-77.25693718, -11.42966024], [-77.25692668, -11.42964557], [-77.25701134, -11.42957021], [-77.25710096, -11.42967722], [-77.25700835, -11.42975966], [-77.25693718, -11.42966024]]]}, "properties": {"categoria": "LOTE", "name": "E - 4", "id_lote": "E - 4", "fill": "#ffffff"}}, {"type": "Feature", "geometry": {"type": "Polygon", "coordinates": [[[-77.25702644, -11.42978492], [-77.25700835, -11.42975966], [-77.25710096, -11.42967722], [-77.25717949, -11.42977098], [-77.25718348, -11.42977574], [-77.25708355, -11.4298647], [-77.25702644, -11.42978492]]]}, "properties": {"categoria": "LOTE", "name": "E - 3", "id_lote": "E - 3", "fill": "#d32f2f"}}, {"type": "Feature", "geometry": {"type": "Polygon", "coordinates": [[[-77.25709987, -11.42988749], [-77.25708355, -11.4298647], [-77.25718348, -11.42977574], [-77.2572604, -11.42986741], [-77.25715357, -11.42996251], [-77.25709987, -11.42988749]]]}, "properties": {"categoria": "LOTE", "name": "E - 2", "id_lote": "E - 2", "fill": "#ffffff"}}, {"type": "Feature", "geometry": {"type": "Polygon", "coordinates": [[[-77.25716223, -11.42997461], [-77.25715357, -11.42996251], [-77.2572604, -11.42986741], [-77.25733353, -11.42995455], [-77.25723118, -11.43004244], [-77.25721845, -11.43005314], [-77.25716223, -11.42997461]]]}, "properties": {"categoria": "LOTE", "name": "E - 1", "id_lote": "E - 1", "fill": "#ffffff"}}, {"type": "Feature", "geometry": {"type": "Polygon", "coordinates": [[[-77.25685895, -11.42972668], [-77.25683945, -11.42969539], [-77.25677711, -11.42959324], [-77.25678113, -11.42956647], [-77.2568354, -11.42951807], [-77.25692668, -11.42964557], [-77.25693718, -11.42966024], [-77.25685895, -11.42972668]]]}, "properties": {"categoria": "LOTE", "name": "E - 6", "id_lote": "E - 6", "fill": "#388e3c"}}, {"type": "Feature", "geometry": {"type": "Polygon", "coordinates": [[[-77.256936, -11.42986172], [-77.25691793, -11.42982139], [-77.25688697, -11.42977099], [-77.25686911, -11.42974299], [-77.25685895, -11.42972668], [-77.25693718, -11.42966024], [-77.25700835, -11.42975966], [-77.25702644, -11.42978492], [-77.256936, -11.42986172]]]}, "properties": {"categoria": "LOTE", "name": "E - 7", "id_lote": "E - 7", "fill": "#ffffff"}}, {"type": "Feature", "geometry": {"type": "Polygon", "coordinates": [[[-77.25703692, -11.43008103], [-77.25700693, -11.43002002], [-77.25698953, -11.42998119], [-77.25709987, -11.42988749], [-77.25715357, -11.42996251], [-77.25716223, -11.42997461], [-77.25703692, -11.43008103]]]}, "properties": {"categoria": "LOTE", "name": "E - 9", "id_lote": "E - 9", "fill": "#ffffff"}}, {"type": "Feature", "geometry": {"type": "Polygon", "coordinates": [[[-77.25721845, -11.43005314], [-77.25713149, -11.43012623], [-77.2570807, -11.43017012], [-77.25703692, -11.43008103], [-77.25716223, -11.42997461], [-77.25721845, -11.43005314]]]}, "properties": {"categoria": "LOTE", "name": "E - 10", "id_lote": "E - 10", "fill": "#ffffff"}}, {"type": "Feature", "geometry": {"type": "Polygon", "coordinates": [[[-77.2568354, -11.42951807], [-77.25689637, -11.4294637], [-77.25692379, -11.42946566], [-77.25701134, -11.42957021], [-77.25692668, -11.42964557], [-77.2568354, -11.42951807]]]}, "properties": {"categoria": "LOTE", "name": "E - 5", "id_lote": "E - 5", "fill": "#d32f2f"}}, {"type": "Feature", "geometry": {"type": "Polygon", "coordinates": [[[-77.256936, -11.42986172], [-77.25702644, -11.42978492], [-77.25708355, -11.4298647], [-77.25709987, -11.42988749], [-77.25698953, -11.42998119], [-77.256936, -11.42986172]]]}, "properties": {"categoria": "LOTE", "name": "E - 8", "id_lote": "E - 8", "fill": "#ffffff"}}, {"type": "Feature", "geometry": {"type": "Polygon", "coordinates": [[[-77.2569687, -11.42930175], [-77.25688113, -11.42920616], [-77.2569525, -11.42914234], [-77.25704016, -11.42923802], [-77.2569687, -11.42930175]]]}, "properties": {"categoria": "LOTE", "name": "F - 13", "id_lote": "F - 13", "fill": "#388e3c"}}, {"type": "Feature", "geometry": {"type": "Polygon", "coordinates": [[[-77.25704016, -11.42923802], [-77.2569525, -11.42914234], [-77.25702379, -11.42907858], [-77.25711155, -11.42917437], [-77.25704016, -11.42923802]]]}, "properties": {"categoria": "LOTE", "name": "F - 12", "id_lote": "F - 12", "fill": "#388e3c"}}, {"type": "Feature", "geometry": {"type": "Polygon", "coordinates": [[[-77.25688113, -11.42920616], [-77.2569687, -11.42930175], [-77.25682556, -11.42942939], [-77.25673817, -11.42933402], [-77.25688113, -11.42920616]]]}, "properties": {"categoria": "LOTE", "name": "F - 14", "id_lote": "F - 14", "fill": "#d32f2f"}}, {"type": "Feature", "geometry": {"type": "Polygon", "coordinates": [[[-77.25711155, -11.42917437], [-77.25702379, -11.42907858], [-77.257095, -11.4290149], [-77.25718286, -11.42911079], [-77.25711155, -11.42917437]]]}, "properties": {"categoria": "LOTE", "name": "F - 11", "id_lote": "F - 11", "fill": "#388e3c"}}, {"type": "Feature", "geometry": {"type": "Polygon", "coordinates": [[[-77.25718286, -11.42911079], [-77.257095, -11.4290149], [-77.25716614, -11.42895128], [-77.25725409, -11.42904727], [-77.25718286, -11.42911079]]]}, "properties": {"categoria": "LOTE", "name": "F - 10", "id_lote": "F - 10", "fill": "#388e3c"}}, {"type": "Feature", "geometry": {"type": "Polygon", "coordinates": [[[-77.25725409, -11.42904727], [-77.25716614, -11.42895128], [-77.2572372, -11.42888772], [-77.25732525, -11.42898381], [-77.25725409, -11.42904727]]]}, "properties": {"categoria": "LOTE", "name": "F - 9", "id_lote": "F - 9", "fill": "#ffffff"}}, {"type": "Feature", "geometry": {"type": "Polygon", "coordinates": [[[-77.25732525, -11.42898381], [-77.2572372, -11.42888772], [-77.25730819, -11.42882424], [-77.25739633, -11.42892043], [-77.25732525, -11.42898381]]]}, "properties": {"categoria": "LOTE", "name": "F - 8", "id_lote": "F - 8", "fill": "#ffffff"}}, {"type": "Feature", "geometry": {"type": "Polygon", "coordinates": [[[-77.25739633, -11.42892043], [-77.25730819, -11.42882424], [-77.25737911, -11.42876082], [-77.25746733, -11.42885711], [-77.25739633, -11.42892043]]]}, "properties": {"categoria": "LOTE", "name": "F - 7", "id_lote": "F - 7", "fill": "#388e3c"}}, {"type": "Feature", "geometry": {"type": "Polygon", "coordinates": [[[-77.25746733, -11.42885711], [-77.25737911, -11.42876082], [-77.25744994, -11.42869747], [-77.25753827, -11.42879386], [-77.25746733, -11.42885711]]]}, "properties": {"categoria": "LOTE", "name": "F - 6", "id_lote": "F - 6", "fill": "#388e3c"}}, {"type": "Feature", "geometry": {"type": "Polygon", "coordinates": [[[-77.25753827, -11.42879386], [-77.25744994, -11.42869747], [-77.25752071, -11.42863418], [-77.25760912, -11.42873068], [-77.25753827, -11.42879386]]]}, "properties": {"categoria": "LOTE", "name": "F - 5", "id_lote": "F - 5", "fill": "#ffffff"}}, {"type": "Feature", "geometry": {"type": "Polygon", "coordinates": [[[-77.25760912, -11.42873068], [-77.25752071, -11.42863418], [-77.2575914, -11.42857096], [-77.25767991, -11.42866756], [-77.25760912, -11.42873068]]]}, "properties": {"categoria": "LOTE", "name": "F - 4", "id_lote": "F - 4", "fill": "#ffffff"}}, {"type": "Feature", "geometry": {"type": "Polygon", "coordinates": [[[-77.25767991, -11.42866756], [-77.2575914, -11.42857096], [-77.25766202, -11.42850781], [-77.25775062, -11.4286045], [-77.25767991, -11.42866756]]]}, "properties": {"categoria": "LOTE", "name": "F - 3", "id_lote": "F - 3", "fill": "#388e3c"}}, {"type": "Feature", "geometry": {"type": "Polygon", "coordinates": [[[-77.25775062, -11.4286045], [-77.25766202, -11.42850781], [-77.25773256, -11.42844472], [-77.25782125, -11.42854152], [-77.25775062, -11.4286045]]]}, "properties": {"categoria": "LOTE", "name": "F - 2", "id_lote": "F - 2", "fill": "#d32f2f"}}, {"type": "Feature", "geometry": {"type": "Polygon", "coordinates": [[[-77.25782125, -11.42854152], [-77.25773256, -11.42844472], [-77.25779784, -11.42838634], [-77.25787301, -11.42845411], [-77.25790028, -11.42847105], [-77.25782125, -11.42854152]]]}, "properties": {"categoria": "LOTE", "name": "F - 1", "id_lote": "F - 1", "fill": "#d32f2f"}}, {"type": "Feature", "geometry": {"type": "Polygon", "coordinates": [[[-77.25673817, -11.42933402], [-77.25682556, -11.42942939], [-77.25667314, -11.42956531], [-77.25667105, -11.42956203], [-77.25660322, -11.4294547], [-77.25673817, -11.42933402]]]}, "properties": {"categoria": "LOTE", "name": "F - 15", "id_lote": "F - 15", "fill": "#388e3c"}}, {"type": "Feature", "geometry": {"type": "Point", "coordinates": [-77.25860069711435, -11.42925978465018]}, "properties": {"categoria": "LOTE_NUM_PUNTO", "id_lote": "A - 1"}}, {"type": "Feature", "geometry": {"type": "Point", "coordinates": [-77.25852131493546, -11.42933964593854]}, "properties": {"categoria": "LOTE_NUM_PUNTO", "id_lote": "A - 2"}}, {"type": "Feature", "geometry": {"type": "Point", "coordinates": [-77.25844044860777, -11.42941106059395]}, "properties": {"categoria": "LOTE_NUM_PUNTO", "id_lote": "A - 3"}}, {"type": "Feature", "geometry": {"type": "Point", "coordinates": [-77.25835810091077, -11.42948747449695]}, "properties": {"categoria": "LOTE_NUM_PUNTO", "id_lote": "A - 4"}}, {"type": "Feature", "geometry": {"type": "Point", "coordinates": [-77.25827300688552, -11.42956265877903]}, "properties": {"categoria": "LOTE_NUM_PUNTO", "id_lote": "A - 5"}}, {"type": "Feature", "geometry": {"type": "Point", "coordinates": [-77.25819436991986, -11.42963263153638]}, "properties": {"categoria": "LOTE_NUM_PUNTO", "id_lote": "A - 6"}}, {"type": "Feature", "geometry": {"type": "Point", "coordinates": [-77.25811348293628, -11.42970558754748]}, "properties": {"categoria": "LOTE_NUM_PUNTO", "id_lote": "A - 7"}}, {"type": "Feature", "geometry": {"type": "Point", "coordinates": [-77.25803343675663, -11.42977797656945]}, "properties": {"categoria": "LOTE_NUM_PUNTO", "id_lote": "A - 8"}}, {"type": "Feature", "geometry": {"type": "Point", "coordinates": [-77.25795068061232, -11.42985266584049]}, "properties": {"categoria": "LOTE_NUM_PUNTO", "id_lote": "A - 9"}}, {"type": "Feature", "geometry": {"type": "Point", "coordinates": [-77.25787147294162, -11.42992009739816]}, "properties": {"categoria": "LOTE_NUM_PUNTO", "id_lote": "A - 10"}}, {"type": "Feature", "geometry": {"type": "Point", "coordinates": [-77.25778953028885, -11.42999740860548]}, "properties": {"categoria": "LOTE_NUM_PUNTO", "id_lote": "A - 11"}}, {"type": "Feature", "geometry": {"type": "Point", "coordinates": [-77.25771108710761, -11.4300681920469]}, "properties": {"categoria": "LOTE_NUM_PUNTO", "id_lote": "A - 12"}}, {"type": "Feature", "geometry": {"type": "Point", "coordinates": [-77.25763141376025, -11.43013826317426]}, "properties": {"categoria": "LOTE_NUM_PUNTO", "id_lote": "A - 13"}}, {"type": "Feature", "geometry": {"type": "Point", "coordinates": [-77.2575502708736, -11.4302108209563]}, "properties": {"categoria": "LOTE_NUM_PUNTO", "id_lote": "A - 14"}}, {"type": "Feature", "geometry": {"type": "Point", "coordinates": [-77.25820522237065, -11.42905006559087]}, "properties": {"categoria": "LOTE_NUM_PUNTO", "id_lote": "B - 1"}}, {"type": "Feature", "geometry": {"type": "Point", "coordinates": [-77.25812927120727, -11.42911908308022]}, "properties": {"categoria": "LOTE_NUM_PUNTO", "id_lote": "B - 2"}}, {"type": "Feature", "geometry": {"type": "Point", "coordinates": [-77.25805636227228, -11.4291797378985]}, "properties": {"categoria": "LOTE_NUM_PUNTO", "id_lote": "B - 3"}}, {"type": "Feature", "geometry": {"type": "Point", "coordinates": [-77.25798764607374, -11.42923953439488]}, "properties": {"categoria": "LOTE_NUM_PUNTO", "id_lote": "B - 4"}}, {"type": "Feature", "geometry": {"type": "Point", "coordinates": [-77.25792057508512, -11.42930171557514]}, "properties": {"categoria": "LOTE_NUM_PUNTO", "id_lote": "B - 5"}}, {"type": "Feature", "geometry": {"type": "Point", "coordinates": [-77.25785168862107, -11.42936160633517]}, "properties": {"categoria": "LOTE_NUM_PUNTO", "id_lote": "B - 6"}}, {"type": "Feature", "geometry": {"type": "Point", "coordinates": [-77.25778378861337, -11.42942255627305]}, "properties": {"categoria": "LOTE_NUM_PUNTO", "id_lote": "B - 7"}}, {"type": "Feature", "geometry": {"type": "Point", "coordinates": [-77.25768788745198, -11.42948300992975]}, "properties": {"categoria": "LOTE_NUM_PUNTO", "id_lote": "B - 8"}}, {"type": "Feature", "geometry": {"type": "Point", "coordinates": [-77.25776558380622, -11.42957042418823]}, "properties": {"categoria": "LOTE_NUM_PUNTO", "id_lote": "B - 9"}}, {"type": "Feature", "geometry": {"type": "Point", "coordinates": [-77.25784390138047, -11.42965847729829]}, "properties": {"categoria": "LOTE_NUM_PUNTO", "id_lote": "B - 10"}}, {"type": "Feature", "geometry": {"type": "Point", "coordinates": [-77.25791611587898, -11.42956187863029]}, "properties": {"categoria": "LOTE_NUM_PUNTO", "id_lote": "B - 11"}}, {"type": "Feature", "geometry": {"type": "Point", "coordinates": [-77.25798083967143, -11.4295023040953]}, "properties": {"categoria": "LOTE_NUM_PUNTO", "id_lote": "B - 12"}}, {"type": "Feature", "geometry": {"type": "Point", "coordinates": [-77.25805296168683, -11.42944224287416]}, "properties": {"categoria": "LOTE_NUM_PUNTO", "id_lote": "B - 13"}}, {"type": "Feature", "geometry": {"type": "Point", "coordinates": [-77.2581183179639, -11.42938428553841]}, "properties": {"categoria": "LOTE_NUM_PUNTO", "id_lote": "B - 14"}}, {"type": "Feature", "geometry": {"type": "Point", "coordinates": [-77.25818912732888, -11.42932287183537]}, "properties": {"categoria": "LOTE_NUM_PUNTO", "id_lote": "B - 15"}}, {"type": "Feature", "geometry": {"type": "Point", "coordinates": [-77.25825413193532, -11.42926157321429]}, "properties": {"categoria": "LOTE_NUM_PUNTO", "id_lote": "B - 16"}}, {"type": "Feature", "geometry": {"type": "Point", "coordinates": [-77.2583677329615, -11.42920986608246]}, "properties": {"categoria": "LOTE_NUM_PUNTO", "id_lote": "B - 17"}}, {"type": "Feature", "geometry": {"type": "Point", "coordinates": [-77.25829142047047, -11.42912837040025]}, "properties": {"categoria": "LOTE_NUM_PUNTO", "id_lote": "B - 18"}}, {"type": "Feature", "geometry": {"type": "Point", "coordinates": [-77.25794003576, -11.42890487872372]}, "properties": {"categoria": "LOTE_NUM_PUNTO", "id_lote": "C - 1"}}, {"type": "Feature", "geometry": {"type": "Point", "coordinates": [-77.25789657643227, -11.42881073169335]}, "properties": {"categoria": "LOTE_NUM_PUNTO", "id_lote": "C - 2"}}, {"type": "Feature", "geometry": {"type": "Point", "coordinates": [-77.25789745776754, -11.42866101096823]}, "properties": {"categoria": "LOTE_NUM_PUNTO", "id_lote": "C - 3"}}, {"type": "Feature", "geometry": {"type": "Point", "coordinates": [-77.2578024836919, -11.42874308947545]}, "properties": {"categoria": "LOTE_NUM_PUNTO", "id_lote": "C - 4"}}, {"type": "Feature", "geometry": {"type": "Point", "coordinates": [-77.25773999786918, -11.42883815883407]}, "properties": {"categoria": "LOTE_NUM_PUNTO", "id_lote": "C - 5"}}, {"type": "Feature", "geometry": {"type": "Point", "coordinates": [-77.25767542041616, -11.42889695315305]}, "properties": {"categoria": "LOTE_NUM_PUNTO", "id_lote": "C - 6"}}, {"type": "Feature", "geometry": {"type": "Point", "coordinates": [-77.25760814766122, -11.42895862305057]}, "properties": {"categoria": "LOTE_NUM_PUNTO", "id_lote": "C - 7"}}, {"type": "Feature", "geometry": {"type": "Point", "coordinates": [-77.2575379124126, -11.429016928248]}, "properties": {"categoria": "LOTE_NUM_PUNTO", "id_lote": "C - 8"}}, {"type": "Feature", "geometry": {"type": "Point", "coordinates": [-77.25747097035897, -11.42908086452356]}, "properties": {"categoria": "LOTE_NUM_PUNTO", "id_lote": "C - 9"}}, {"type": "Feature", "geometry": {"type": "Point", "coordinates": [-77.25736867242753, -11.42913216935892]}, "properties": {"categoria": "LOTE_NUM_PUNTO", "id_lote": "C - 10"}}, {"type": "Feature", "geometry": {"type": "Point", "coordinates": [-77.257445325562, -11.42921945085366]}, "properties": {"categoria": "LOTE_NUM_PUNTO", "id_lote": "C - 11"}}, {"type": "Feature", "geometry": {"type": "Point", "coordinates": [-77.25752282454404, -11.42930729552169]}, "properties": {"categoria": "LOTE_NUM_PUNTO", "id_lote": "C - 12"}}, {"type": "Feature", "geometry": {"type": "Point", "coordinates": [-77.25759276180808, -11.42921342741691]}, "properties": {"categoria": "LOTE_NUM_PUNTO", "id_lote": "C - 13"}}, {"type": "Feature", "geometry": {"type": "Point", "coordinates": [-77.25766243142186, -11.42915185661692]}, "properties": {"categoria": "LOTE_NUM_PUNTO", "id_lote": "C - 14"}}, {"type": "Feature", "geometry": {"type": "Point", "coordinates": [-77.25772963856652, -11.42909348933188]}, "properties": {"categoria": "LOTE_NUM_PUNTO", "id_lote": "C - 15"}}, {"type": "Feature", "geometry": {"type": "Point", "coordinates": [-77.25780039434628, -11.42903095127991]}, "properties": {"categoria": "LOTE_NUM_PUNTO", "id_lote": "C - 16"}}, {"type": "Feature", "geometry": {"type": "Point", "coordinates": [-77.25786813934681, -11.42897005527759]}, "properties": {"categoria": "LOTE_NUM_PUNTO", "id_lote": "C - 17"}}, {"type": "Feature", "geometry": {"type": "Point", "coordinates": [-77.25768513404384, -11.42976343239332]}, "properties": {"categoria": "LOTE_NUM_PUNTO", "id_lote": "D - 1"}}, {"type": "Feature", "geometry": {"type": "Point", "coordinates": [-77.25756633029786, -11.42969296191497]}, "properties": {"categoria": "LOTE_NUM_PUNTO", "id_lote": "D - 2"}}, {"type": "Feature", "geometry": {"type": "Point", "coordinates": [-77.25734875627772, -11.4294531540005]}, "properties": {"categoria": "LOTE_NUM_PUNTO", "id_lote": "D - 3"}}, {"type": "Feature", "geometry": {"type": "Point", "coordinates": [-77.2572866929449, -11.42938559262268]}, "properties": {"categoria": "LOTE_NUM_PUNTO", "id_lote": "D - 4"}}, {"type": "Feature", "geometry": {"type": "Point", "coordinates": [-77.25722779957351, -11.4292807244598]}, "properties": {"categoria": "LOTE_NUM_PUNTO", "id_lote": "D - 5"}}, {"type": "Feature", "geometry": {"type": "Point", "coordinates": [-77.2571433204358, -11.42935395450876]}, "properties": {"categoria": "LOTE_NUM_PUNTO", "id_lote": "D - 6"}}, {"type": "Feature", "geometry": {"type": "Point", "coordinates": [-77.2570596108936, -11.42942685169836]}, "properties": {"categoria": "LOTE_NUM_PUNTO", "id_lote": "D - 7"}}, {"type": "Feature", "geometry": {"type": "Point", "coordinates": [-77.25715873118519, -11.42949844801661]}, "properties": {"categoria": "LOTE_NUM_PUNTO", "id_lote": "D - 8"}}, {"type": "Feature", "geometry": {"type": "Point", "coordinates": [-77.25722187357871, -11.42956706625252]}, "properties": {"categoria": "LOTE_NUM_PUNTO", "id_lote": "D - 9"}}, {"type": "Feature", "geometry": {"type": "Point", "coordinates": [-77.25742993975813, -11.42981263616354]}, "properties": {"categoria": "LOTE_NUM_PUNTO", "id_lote": "D - 10"}}, {"type": "Feature", "geometry": {"type": "Point", "coordinates": [-77.25747220226724, -11.42995349072707]}, "properties": {"categoria": "LOTE_NUM_PUNTO", "id_lote": "D - 11"}}, {"type": "Feature", "geometry": {"type": "Point", "coordinates": [-77.25754682673931, -11.42988905052355]}, "properties": {"categoria": "LOTE_NUM_PUNTO", "id_lote": "D - 12"}}, {"type": "Feature", "geometry": {"type": "Point", "coordinates": [-77.25761546907893, -11.42982714854581]}, "properties": {"categoria": "LOTE_NUM_PUNTO", "id_lote": "D - 13"}}, {"type": "Feature", "geometry": {"type": "Point", "coordinates": [-77.25724145187418, -11.42995760041619]}, "properties": {"categoria": "LOTE_NUM_PUNTO", "id_lote": "E - 1"}}, {"type": "Feature", "geometry": {"type": "Point", "coordinates": [-77.25717331234648, -11.42987317998336]}, "properties": {"categoria": "LOTE_NUM_PUNTO", "id_lote": "E - 2"}}, {"type": "Feature", "geometry": {"type": "Point", "coordinates": [-77.25709214012555, -11.42976769610745]}, "properties": {"categoria": "LOTE_NUM_PUNTO", "id_lote": "E - 3"}}, {"type": "Feature", "geometry": {"type": "Point", "coordinates": [-77.25701107024213, -11.42966251582812]}, "properties": {"categoria": "LOTE_NUM_PUNTO", "id_lote": "E - 4"}}, {"type": "Feature", "geometry": {"type": "Point", "coordinates": [-77.25692434793729, -11.42954830641149]}, "properties": {"categoria": "LOTE_NUM_PUNTO", "id_lote": "E - 5"}}, {"type": "Feature", "geometry": {"type": "Point", "coordinates": [-77.25685269119569, -11.42962649413919]}, "properties": {"categoria": "LOTE_NUM_PUNTO", "id_lote": "E - 6"}}, {"type": "Feature", "geometry": {"type": "Point", "coordinates": [-77.25694065417397, -11.42976079923446]}, "properties": {"categoria": "LOTE_NUM_PUNTO", "id_lote": "E - 7"}}, {"type": "Feature", "geometry": {"type": "Point", "coordinates": [-77.2570150385714, -11.42988202109013]}, "properties": {"categoria": "LOTE_NUM_PUNTO", "id_lote": "E - 8"}}, {"type": "Feature", "geometry": {"type": "Point", "coordinates": [-77.25707183601025, -11.42998271961944]}, "properties": {"categoria": "LOTE_NUM_PUNTO", "id_lote": "E - 9"}}, {"type": "Feature", "geometry": {"type": "Point", "coordinates": [-77.25712566360184, -11.43007518656779]}, "properties": {"categoria": "LOTE_NUM_PUNTO", "id_lote": "E - 10"}}, {"type": "Feature", "geometry": {"type": "Point", "coordinates": [-77.25781417366616, -11.42846734101777]}, "properties": {"categoria": "LOTE_NUM_PUNTO", "id_lote": "F - 1"}}, {"type": "Feature", "geometry": {"type": "Point", "coordinates": [-77.25774566027337, -11.42852868101773]}, "properties": {"categoria": "LOTE_NUM_PUNTO", "id_lote": "F - 2"}}, {"type": "Feature", "geometry": {"type": "Point", "coordinates": [-77.25767623739586, -11.42859057892927]}, "properties": {"categoria": "LOTE_NUM_PUNTO", "id_lote": "F - 3"}}, {"type": "Feature", "geometry": {"type": "Point", "coordinates": [-77.25760518797311, -11.4286561951862]}, "properties": {"categoria": "LOTE_NUM_PUNTO", "id_lote": "F - 4"}}, {"type": "Feature", "geometry": {"type": "Point", "coordinates": [-77.25753523675439, -11.42871859107079]}, "properties": {"categoria": "LOTE_NUM_PUNTO", "id_lote": "F - 5"}}, {"type": "Feature", "geometry": {"type": "Point", "coordinates": [-77.2574628617754, -11.42878233480232]}, "properties": {"categoria": "LOTE_NUM_PUNTO", "id_lote": "F - 6"}}, {"type": "Feature", "geometry": {"type": "Point", "coordinates": [-77.25739313575782, -11.42884452462277]}, "properties": {"categoria": "LOTE_NUM_PUNTO", "id_lote": "F - 7"}}, {"type": "Feature", "geometry": {"type": "Point", "coordinates": [-77.25731927121889, -11.42890966667291]}, "properties": {"categoria": "LOTE_NUM_PUNTO", "id_lote": "F - 8"}}, {"type": "Feature", "geometry": {"type": "Point", "coordinates": [-77.2572513485041, -11.42897186874626]}, "properties": {"categoria": "LOTE_NUM_PUNTO", "id_lote": "F - 9"}}, {"type": "Feature", "geometry": {"type": "Point", "coordinates": [-77.25717679021014, -11.4290374481678]}, "properties": {"categoria": "LOTE_NUM_PUNTO", "id_lote": "F - 10"}}, {"type": "Feature", "geometry": {"type": "Point", "coordinates": [-77.25710431979797, -11.42910198006088]}, "properties": {"categoria": "LOTE_NUM_PUNTO", "id_lote": "F - 11"}}, {"type": "Feature", "geometry": {"type": "Point", "coordinates": [-77.25703631265351, -11.4291613690126]}, "properties": {"categoria": "LOTE_NUM_PUNTO", "id_lote": "F - 12"}}, {"type": "Feature", "geometry": {"type": "Point", "coordinates": [-77.25696300925473, -11.4292263066381]}, "properties": {"categoria": "LOTE_NUM_PUNTO", "id_lote": "F - 13"}}, {"type": "Feature", "geometry": {"type": "Point", "coordinates": [-77.25686214468995, -11.42931828144239]}, "properties": {"categoria": "LOTE_NUM_PUNTO", "id_lote": "F - 14"}}, {"type": "Feature", "geometry": {"type": "Point", "coordinates": [-77.2567110720522, -11.42944984114373]}, "properties": {"categoria": "LOTE_NUM_PUNTO", "id_lote": "F - 15"}}, {"type": "Feature", "geometry": {"type": "Point", "coordinates": [-77.25801964335115, -11.42930693242752]}, "properties": {"categoria": "MANZANA_LABEL", "name": "B"}}, {"type": "Feature", "geometry": {"type": "Point", "coordinates": [-77.25767316433777, -11.42898246395599]}, "properties": {"categoria": "MANZANA_LABEL", "name": "C"}}, {"type": "Feature", "geometry": {"type": "Point", "coordinates": [-77.25730131676967, -11.42949974774981]}, "properties": {"categoria": "MANZANA_LABEL", "name": "D"}}, {"type": "Feature", "geometry": {"type": "Point", "coordinates": [-77.2570307667728, -11.42976194488763]}, "properties": {"categoria": "MANZANA_LABEL", "name": "E"}}, {"type": "Feature", "geometry": {"type": "Point", "coordinates": [-77.25728427950824, -11.42891003381455]}, "properties": {"categoria": "MANZANA_LABEL", "name": "F"}}, {"type": "Feature", "geometry": {"type": "Point", "coordinates": [-77.25807238293534, -11.42973219024939]}, "properties": {"categoria": "MANZANA_LABEL", "name": "A"}}, {"type": "Feature", "geometry": {"type": "LineString", "coordinates": [[-77.25859132704326, -11.4291691317456], [-77.25858511115561, -11.42916209967195], [-77.25745320486647, -11.43016534216103], [-77.25746181359347, -11.43017560037794]]}, "properties": {"categoria": "VEREDA", "name": "VR A"}}, {"type": "Feature", "geometry": {"type": "LineString", "coordinates": [[-77.25777239688917, -11.42977612911], [-77.25777587093543, -11.42978156894712], [-77.25777503621322, -11.42980605245779], [-77.2577710140685, -11.42981204041635], [-77.25750173749495, -11.43005382004562], [-77.25749437413633, -11.43005659386963], [-77.25747114224549, -11.43005160291981], [-77.25746342539017, -11.43004556415041], [-77.2573855136892, -11.42991458479358], [-77.25732189072318, -11.42983760547803], [-77.25760124373282, -11.42958961854131], [-77.25775982966238, -11.42976183087407], [-77.25777233799658, -11.42977626072533]]}, "properties": {"categoria": "VEREDA", "name": "VR D1"}}, {"type": "Feature", "geometry": {"type": "LineString", "coordinates": [[-77.25745389846094, -11.42943019206885], [-77.25718028017513, -11.42967333657923], [-77.25696852366174, -11.42941670095606], [-77.25697041884185, -11.42938907490585], [-77.2572023548606, -11.42918304078287], [-77.25722691821343, -11.42918486766109], [-77.2572332408828, -11.42918580245543], [-77.25744737287981, -11.42942215463236], [-77.25745422516006, -11.42943041156918]]}, "properties": {"categoria": "VEREDA", "name": "VR D2"}}, {"type": "Feature", "geometry": {"type": "LineString", "coordinates": [[-77.25733405150118, -11.42995428377582], [-77.25733916367514, -11.42994963420633], [-77.25731817157457, -11.42992588783549], [-77.2569267035241, -11.42945891276722], [-77.25689291334103, -11.42945770763765], [-77.2567752593639, -11.42956304068556], [-77.25677021892574, -11.42959156977608], [-77.25690723376256, -11.42982154402303], [-77.25698112469905, -11.42998721980893], [-77.25707304063013, -11.43017717211735], [-77.25708063082928, -11.43017052627214]]}, "properties": {"categoria": "VEREDA", "name": "VR E"}}, {"type": "Feature", "geometry": {"type": "LineString", "coordinates": [[-77.25847109892496, -11.42918905223683], [-77.25846484255167, -11.42915409413125], [-77.25840826595233, -11.42912871610132], [-77.2583669178426, -11.42909798752226], [-77.25832156128256, -11.42902241943016], [-77.25830623910322, -11.4289777041748], [-77.25827647628986, -11.42896114798417], [-77.25821304737654, -11.42897975479698], [-77.25816015164796, -11.42898120553805], [-77.25812715254453, -11.42898727830983], [-77.25809311086957, -11.42901578968929], [-77.25775151936374, -11.42931971568628], [-77.25759532007146, -11.42946119064318], [-77.25759361514152, -11.42949371143541], [-77.25761027898484, -11.42951302737041], [-77.25781790631649, -11.42973910290725], [-77.25785245503184, -11.42974187284405], [-77.25847109892497, -11.4291890522474]]}, "properties": {"categoria": "VEREDA", "name": "VR B"}}, {"type": "Feature", "geometry": {"type": "LineString", "coordinates": [[-77.25802726682397, -11.42895384073725], [-77.2580321296193, -11.42892046725848], [-77.2580025151314, -11.42887096675508], [-77.25798588035414, -11.42882450846765], [-77.25797863118338, -11.42877500010096], [-77.25798665446007, -11.42873063205267], [-77.25798873328026, -11.42868420343317], [-77.25798366233586, -11.42863256337236], [-77.25797870545904, -11.42860895660894], [-77.25796238143545, -11.42858533533839], [-77.25793190299116, -11.42856347606191], [-77.25791482712533, -11.42856147334494], [-77.25789438814972, -11.4285636639375], [-77.25787652535291, -11.42857903110322], [-77.2572747657572, -11.42911607695192], [-77.25727433090343, -11.42914815707547], [-77.25729384781127, -11.42917040580235], [-77.25749780563797, -11.42939505866671], [-77.25753264242789, -11.42939571012645], [-77.25756260890572, -11.42936958281631], [-77.25802726682397, -11.42895384073725]]}, "properties": {"categoria": "VEREDA", "name": "VR C"}}, {"type": "Feature", "geometry": {"type": "LineString", "coordinates": [[-77.25790078626979, -11.42847123377256], [-77.2579055344169, -11.42847525611668], [-77.25782555645023, -11.42854620075855], [-77.25667740487432, -11.42957235918461], [-77.25667307770603, -11.42956569493776]]}, "properties": {"categoria": "VEREDA", "name": "VR F"}}, {"type": "Feature", "geometry": {"type": "LineString", "coordinates": [[-77.25870779381106, -11.42928008643854], [-77.25856688430609, -11.42912829012], [-77.25854281866013, -11.42911172509829], [-77.25847416530289, -11.42908028775156], [-77.25843902069356, -11.4290640425695], [-77.2584213273144, -11.42904686906424], [-77.25840218376827, -11.42902388691459], [-77.25838764946963, -11.42899919408459], [-77.25837925379862, -11.42898305399994], [-77.2583751122609, -11.42896975168698], [-77.25837249714219, -11.42896067568454], [-77.25836960299603, -11.4289330362334], [-77.2583679622745, -11.42889996259403], [-77.2583677948065, -11.42888882025656], [-77.25838553931727, -11.42889188723651], [-77.25838746449465, -11.4288795715307], [-77.25838803328574, -11.42886754976059], [-77.25838772519432, -11.42885576115837], [-77.2583866286547, -11.4288445179517], [-77.25838447717827, -11.42883276458923], [-77.25838250530849, -11.42882212788872], [-77.25837404511219, -11.42880038031604], [-77.25836367557015, -11.42878025648984], [-77.25835332151536, -11.42876283700407], [-77.25833796255338, -11.42874513962695], [-77.25833169681474, -11.42873748842594], [-77.25832356413034, -11.42872855725189], [-77.2583094586583, -11.42871385796409], [-77.25829233641035, -11.42869894243789], [-77.25827655719854, -11.42868528870981], [-77.25825915906442, -11.42867479741124], [-77.25820055814367, -11.42863958244726], [-77.2581663326537, -11.42862159695985], [-77.2581319251107, -11.42860426081975], [-77.25810398860482, -11.42859114024938], [-77.25805250007501, -11.42856726976111], [-77.25796406862973, -11.42850051073947], [-77.25791970387483, -11.42847463939284], [-77.25790985858478, -11.42847301499195], [-77.25789750408859, -11.42846394264214], [-77.2578767967233, -11.42845178620606], [-77.25779751829496, -11.42838399611976], [-77.25660174416876, -11.42945440851167], [-77.25672794282545, -11.42965640361265], [-77.25685207770886, -11.42985935675024], [-77.25687780716412, -11.42992917059557], [-77.25689562479275, -11.42999490731436], [-77.25693227266505, -11.4300697100849], [-77.25698922440196, -11.43019725023633], [-77.25700441613994, -11.43021800373576], [-77.25701397275546, -11.43023195267706], [-77.257328124717, -11.42996335434911], [-77.2575307018502, -11.43031693627689], [-77.25810769436623, -11.42980828411354], [-77.25839522689975, -11.42955240156728], [-77.25868004397219, -11.42929470221438], [-77.2586952502619, -11.42928861069167], [-77.25870677115779, -11.42928004799851]]}, "properties": {"categoria": "LIMITE_PROYECTO", "name": "Perímetro"}}, {"type": "Feature", "geometry": {"type": "Point", "coordinates": [-77.258471, -11.428902]}, "properties": {"categoria": "TOUR_360", "name": "Ingreso / Laguna", "imagen": "tours360/tour_1.jpg"}}, {"type": "Feature", "geometry": {"type": "Point", "coordinates": [-77.258342, -11.428926]}, "properties": {"categoria": "TOUR_360", "name": "Zona de juegos", "imagen": "tours360/tour_2.jpg"}}, {"type": "Feature", "geometry": {"type": "Point", "coordinates": [-77.258524, -11.429178]}, "properties": {"categoria": "TOUR_360", "name": "Vía interior", "imagen": "tours360/tour_3.jpg"}}, {"type": "Feature", "geometry": {"type": "Point", "coordinates": [-77.258244, -11.429428]}, "properties": {"categoria": "TOUR_360", "name": "Punto 4", "imagen": "tours360/tour_4.jpg"}}, {"type": "Feature", "geometry": {"type": "Point", "coordinates": [-77.257851, -11.429796]}, "properties": {"categoria": "TOUR_360", "name": "Punto 5", "imagen": "tours360/tour_5.jpg"}}, {"type": "Feature", "geometry": {"type": "Point", "coordinates": [-77.257483, -11.43011]}, "properties": {"categoria": "TOUR_360", "name": "Punto 6", "imagen": "tours360/tour_6.jpg"}}, {"type": "Feature", "geometry": {"type": "Point", "coordinates": [-77.257255, -11.4298]}, "properties": {"categoria": "TOUR_360", "name": "Punto 7", "imagen": "tours360/tour_7.jpg"}}, {"type": "Feature", "geometry": {"type": "Point", "coordinates": [-77.256909, -11.429398]}, "properties": {"categoria": "TOUR_360", "name": "Punto 8", "imagen": "tours360/tour_8.jpg"}}, {"type": "Feature", "geometry": {"type": "Point", "coordinates": [-77.256723, -11.429556]}, "properties": {"categoria": "TOUR_360", "name": "Punto 9", "imagen": "tours360/tour_9.jpg"}}, {"type": "Feature", "geometry": {"type": "Point", "coordinates": [-77.256974, -11.430036]}, "properties": {"categoria": "TOUR_360", "name": "Punto 10", "imagen": "tours360/tour_10.jpg"}}, {"type": "Feature", "geometry": {"type": "Point", "coordinates": [-77.257202, -11.429121]}, "properties": {"categoria": "TOUR_360", "name": "Punto 11", "imagen": "tours360/tour_11.jpg"}}, {"type": "Feature", "geometry": {"type": "Point", "coordinates": [-77.257585, -11.428799]}, "properties": {"categoria": "TOUR_360", "name": "Punto 12", "imagen": "tours360/tour_12.jpg"}}, {"type": "Feature", "geometry": {"type": "Point", "coordinates": [-77.257936, -11.428513]}, "properties": {"categoria": "TOUR_360", "name": "Punto 13", "imagen": "tours360/tour_13.jpg"}}, {"type": "Feature", "geometry": {"type": "Point", "coordinates": [-77.258005, -11.428778]}, "properties": {"categoria": "TOUR_360", "name": "Punto 14", "imagen": "tours360/tour_14.jpg"}}, {"type": "Feature", "geometry": {"type": "Point", "coordinates": [-77.258117, -11.428956]}, "properties": {"categoria": "TOUR_360", "name": "Punto 15", "imagen": "tours360/tour_15.jpg"}}, {"type": "Feature", "geometry": {"type": "Point", "coordinates": [-77.257847, -11.429224]}, "properties": {"categoria": "TOUR_360", "name": "Punto 16", "imagen": "tours360/tour_16.jpg"}}, {"type": "Feature", "geometry": {"type": "Point", "coordinates": [-77.257545, -11.429473]}, "properties": {"categoria": "TOUR_360", "name": "Punto 17", "imagen": "tours360/tour_17.jpg"}}, {"type": "Feature", "geometry": {"type": "Point", "coordinates": [-77.25739, -11.429591]}, "properties": {"categoria": "TOUR_360", "name": "Punto 18", "imagen": "tours360/tour_18.jpg"}}]}